CCSDS_OMM_VERS = 2.0
CREATION_DATE  = 
ORIGINATOR     = 

OBJECT_NAME    = RSP-03
OBJECT_ID      = 1998-067XL
CENTER_NAME    = EARTH
REF_FRAME      = TEME
TIME_SYSTEM    = UTC
MEAN_ELEMENT_THEORY = SGP/SGP4

EPOCH          = 2026-02-15T13:04:43.921920
MEAN_MOTION    = 16.27446151
ECCENTRICITY   = .0008655
INCLINATION    = 51.6092
RA_OF_ASC_NODE = 158.8222
ARG_OF_PERICENTER = 330.2514
MEAN_ANOMALY   = 29.8014

EPHEMERIS_TYPE = 0
CLASSIFICATION_TYPE = U
NORAD_CAT_ID   = 65732
ELEMENT_SET_NO = 999
REV_AT_EPOCH   = 2343
BSTAR          = .12988E-2
MEAN_MOTION_DOT = .4865991E-1
MEAN_MOTION_DDOT = .12102E-4

CCSDS_OMM_VERS = 2.0
CREATION_DATE  = 
ORIGINATOR     = 

OBJECT_NAME    = YOTSUBA-KULOVER
OBJECT_ID      = 1998-067XN
CENTER_NAME    = EARTH
REF_FRAME      = TEME
TIME_SYSTEM    = UTC
MEAN_ELEMENT_THEORY = SGP/SGP4

EPOCH          = 2026-02-14T15:01:36.136416
MEAN_MOTION    = 15.72504057
ECCENTRICITY   = .00044758
INCLINATION    = 51.6248
RA_OF_ASC_NODE = 176.1336
ARG_OF_PERICENTER = 301.6790
MEAN_ANOMALY   = 58.3771

EPHEMERIS_TYPE = 0
CLASSIFICATION_TYPE = U
NORAD_CAT_ID   = 65941
ELEMENT_SET_NO = 999
REV_AT_EPOCH   = 1986
BSTAR          = .82769388E-3
MEAN_MOTION_DOT = .113932E-2
MEAN_MOTION_DDOT = 0

CCSDS_OMM_VERS = 2.0
CREATION_DATE  = 
ORIGINATOR     = 

OBJECT_NAME    = BOTAN
OBJECT_ID      = 1998-067XP
CENTER_NAME    = EARTH
REF_FRAME      = TEME
TIME_SYSTEM    = UTC
MEAN_ELEMENT_THEORY = SGP/SGP4

EPOCH          = 2026-02-15T06:18:41.379552
MEAN_MOTION    = 15.89634661
ECCENTRICITY   = .00089286
INCLINATION    = 51.6165
RA_OF_ASC_NODE = 168.3215
ARG_OF_PERICENTER = 328.9748
MEAN_ANOMALY   = 31.0729

EPHEMERIS_TYPE = 0
CLASSIFICATION_TYPE = U
NORAD_CAT_ID   = 65942
ELEMENT_SET_NO = 999
REV_AT_EPOCH   = 2002
BSTAR          = .17518901E-2
MEAN_MOTION_DOT = .526538E-2
MEAN_MOTION_DDOT = .11616566E-3

CCSDS_OMM_VERS = 2.0
CREATION_DATE  = 
ORIGINATOR     = 

OBJECT_NAME    = E-KAGAKU-1
OBJECT_ID      = 1998-067XQ
CENTER_NAME    = EARTH
REF_FRAME      = TEME
TIME_SYSTEM    = UTC
MEAN_ELEMENT_THEORY = SGP/SGP4

EPOCH          = 2026-02-14T13:31:52.335552
MEAN_MOTION    = 15.72355274
ECCENTRICITY   = .00043794
INCLINATION    = 51.6271
RA_OF_ASC_NODE = 176.4800
ARG_OF_PERICENTER = 316.3340
MEAN_ANOMALY   = 43.7311

EPHEMERIS_TYPE = 0
CLASSIFICATION_TYPE = U
NORAD_CAT_ID   = 65943
ELEMENT_SET_NO = 999
REV_AT_EPOCH   = 1985
BSTAR          = .81130855E-3
MEAN_MOTION_DOT = .110915E-2
MEAN_MOTION_DDOT = 0

CCSDS_OMM_VERS = 2.0
CREATION_DATE  = 
ORIGINATOR     = 

OBJECT_NAME    = HRC MONOBLOCK CAMERA
OBJECT_ID      = 1998-067XR
CENTER_NAME    = EARTH
REF_FRAME      = TEME
TIME_SYSTEM    = UTC
MEAN_ELEMENT_THEORY = SGP/SGP4

EPOCH          = 2026-02-15T08:34:10.612128
MEAN_MOTION    = 15.59857553
ECCENTRICITY   = .0001878
INCLINATION    = 51.6275
RA_OF_ASC_NODE = 178.0319
ARG_OF_PERICENTER = 10.8122
MEAN_ANOMALY   = 349.2911

EPHEMERIS_TYPE = 0
CLASSIFICATION_TYPE = U
NORAD_CAT_ID   = 66052
ELEMENT_SET_NO = 999
REV_AT_EPOCH   = 1890
BSTAR          = .67519E-3
MEAN_MOTION_DOT = .55219E-3
MEAN_MOTION_DDOT = 0

CCSDS_OMM_VERS = 2.0
CREATION_DATE  = 
ORIGINATOR     = 

OBJECT_NAME    = HTV-X1
OBJECT_ID      = 2025-241A
CENTER_NAME    = EARTH
REF_FRAME      = TEME
TIME_SYSTEM    = UTC
MEAN_ELEMENT_THEORY = SGP/SGP4

EPOCH          = 2026-02-15T04:22:41.614176
MEAN_MOTION    = 15.48615434
ECCENTRICITY   = .00110479
INCLINATION    = 51.6317
RA_OF_ASC_NODE = 183.6135
ARG_OF_PERICENTER = 100.3471
MEAN_ANOMALY   = 259.8763

EPHEMERIS_TYPE = 0
CLASSIFICATION_TYPE = U
NORAD_CAT_ID   = 66174
ELEMENT_SET_NO = 999
REV_AT_EPOCH   = 51
BSTAR          = .21745046E-3
MEAN_MOTION_DOT = .11408E-3
MEAN_MOTION_DDOT = 0

CCSDS_OMM_VERS = 2.0
CREATION_DATE  = 
ORIGINATOR     = 

OBJECT_NAME    = SZ-21 MODULE
OBJECT_ID      = 2025-246C
CENTER_NAME    = EARTH
REF_FRAME      = TEME
TIME_SYSTEM    = UTC
MEAN_ELEMENT_THEORY = SGP/SGP4

EPOCH          = 2026-02-15T04:52:02.803872
MEAN_MOTION    = 15.66814588
ECCENTRICITY   = .0002175
INCLINATION    = 41.4768
RA_OF_ASC_NODE = 341.5977
ARG_OF_PERICENTER = 296.5638
MEAN_ANOMALY   = 63.4980

EPHEMERIS_TYPE = 0
CLASSIFICATION_TYPE = U
NORAD_CAT_ID   = 66515
ELEMENT_SET_NO = 999
REV_AT_EPOCH   = 1454
BSTAR          = .37236E-3
MEAN_MOTION_DOT = .4035E-3
MEAN_MOTION_DDOT = 0

CCSDS_OMM_VERS = 2.0
CREATION_DATE  = 
ORIGINATOR     = 

OBJECT_NAME    = SHENZHOU-22
OBJECT_ID      = 2025-272A
CENTER_NAME    = EARTH
REF_FRAME      = TEME
TIME_SYSTEM    = UTC
MEAN_ELEMENT_THEORY = SGP/SGP4

EPOCH          = 2026-02-15T05:55:50.092320
MEAN_MOTION    = 15.59657652
ECCENTRICITY   = .00040861
INCLINATION    = 41.4684
RA_OF_ASC_NODE = 344.6145
ARG_OF_PERICENTER = 100.8613
MEAN_ANOMALY   = 259.2686

EPHEMERIS_TYPE = 0
CLASSIFICATION_TYPE = U
NORAD_CAT_ID   = 66645
ELEMENT_SET_NO = 999
REV_AT_EPOCH   = 26764
BSTAR          = .39403586E-3
MEAN_MOTION_DOT = .32152E-3
MEAN_MOTION_DDOT = 0

CCSDS_OMM_VERS = 2.0
CREATION_DATE  = 
ORIGINATOR     = 

OBJECT_NAME    = SOYUZ-MS 28
OBJECT_ID      = 2025-275A
CENTER_NAME    = EARTH
REF_FRAME      = TEME
TIME_SYSTEM    = UTC
MEAN_ELEMENT_THEORY = SGP/SGP4

EPOCH          = 2026-02-15T10:34:23.469024
MEAN_MOTION    = 15.48624284
ECCENTRICITY   = .0011011
INCLINATION    = 51.6317
RA_OF_ASC_NODE = 182.3364
ARG_OF_PERICENTER = 101.2437
MEAN_ANOMALY   = 258.9789

EPHEMERIS_TYPE = 0
CLASSIFICATION_TYPE = U
NORAD_CAT_ID   = 66664
ELEMENT_SET_NO = 999
REV_AT_EPOCH   = 55288
BSTAR          = .24435E-3
MEAN_MOTION_DOT = .12882E-3
MEAN_MOTION_DDOT = 0

CCSDS_OMM_VERS = 2.0
CREATION_DATE  = 
ORIGINATOR     = 

OBJECT_NAME    = DUPLEX
OBJECT_ID      = 1998-067XS
CENTER_NAME    = EARTH
REF_FRAME      = TEME
TIME_SYSTEM    = UTC
MEAN_ELEMENT_THEORY = SGP/SGP4

EPOCH          = 2026-02-15T10:05:18.650400
MEAN_MOTION    = 15.54655435
ECCENTRICITY   = .0001395
INCLINATION    = 51.6292
RA_OF_ASC_NODE = 180.7048
ARG_OF_PERICENTER = 72.7220
MEAN_ANOMALY   = 287.3924

EPHEMERIS_TYPE = 0
CLASSIFICATION_TYPE = U
NORAD_CAT_ID   = 66906
ELEMENT_SET_NO = 999
REV_AT_EPOCH   = 1166
BSTAR          = .60354E-3
MEAN_MOTION_DOT = .40454E-3
MEAN_MOTION_DDOT = 0

CCSDS_OMM_VERS = 2.0
CREATION_DATE  = 
ORIGINATOR     = 

OBJECT_NAME    = ISS OBJECT XT
OBJECT_ID      = 1998-067XT
CENTER_NAME    = EARTH
REF_FRAME      = TEME
TIME_SYSTEM    = UTC
MEAN_ELEMENT_THEORY = SGP/SGP4

EPOCH          = 2026-02-15T08:58:43.561920
MEAN_MOTION    = 15.63144577
ECCENTRICITY   = .0002237
INCLINATION    = 51.6273
RA_OF_ASC_NODE = 178.8932
ARG_OF_PERICENTER = 308.7066
MEAN_ANOMALY   = 51.3728

EPHEMERIS_TYPE = 0
CLASSIFICATION_TYPE = U
NORAD_CAT_ID   = 66907
ELEMENT_SET_NO = 999
REV_AT_EPOCH   = 1168
BSTAR          = .15462E-2
MEAN_MOTION_DOT = .146041E-2
MEAN_MOTION_DDOT = 0

CCSDS_OMM_VERS = 2.0
CREATION_DATE  = 
ORIGINATOR     = 

OBJECT_NAME    = ISS OBJECT XU
OBJECT_ID      = 1998-067XU
CENTER_NAME    = EARTH
REF_FRAME      = TEME
TIME_SYSTEM    = UTC
MEAN_ELEMENT_THEORY = SGP/SGP4

EPOCH          = 2026-02-15T08:57:41.752224
MEAN_MOTION    = 15.63176212
ECCENTRICITY   = .0002258
INCLINATION    = 51.6258
RA_OF_ASC_NODE = 178.8857
ARG_OF_PERICENTER = 316.6221
MEAN_ANOMALY   = 43.4595

EPHEMERIS_TYPE = 0
CLASSIFICATION_TYPE = U
NORAD_CAT_ID   = 66908
ELEMENT_SET_NO = 999
REV_AT_EPOCH   = 1168
BSTAR          = .15388E-2
MEAN_MOTION_DOT = .145508E-2
MEAN_MOTION_DDOT = 0

