RSP-03                  
1 65732U 98067XL  26046.54495280  .04865991  12102-4  12988-2 0  9990
2 65732  51.6092 158.8222 0008655 330.2514  29.8014 16.27446151 23431
YOTSUBA-KULOVER         
1 65941U 98067XN  26045.62611269  .00113932  00000+0  82769-3 0  9998
2 65941  51.6248 176.1336 0004475 301.6790  58.3771 15.72504057 19867
BOTAN                   
1 65942U 98067XP  26046.26297893  .00526538  11617-3  17519-2 0  9993
2 65942  51.6165 168.3215 0008928 328.9748  31.0729 15.89634661 20021
E-KAGAKU-1              
1 65943U 98067XQ  26045.56380018  .00110915  00000+0  81131-3 0  9998
2 65943  51.6271 176.4800 0004379 316.3340  43.7311 15.72355274 19853
HRC MONOBLOCK CAMERA    
1 66052U 98067XR  26046.35706727  .00055219  00000+0  67519-3 0  9996
2 66052  51.6275 178.0319 0001878  10.8122 349.2911 15.59857553 18904
HTV-X1                  
1 66174U 25241A   26046.18242609  .00011408  00000+0  21745-3 0  9993
2 66174  51.6317 183.6135 0011047 100.3471 259.8763 15.48615434   512
SZ-21 MODULE            
1 66515U 25246C   26046.20281023  .00040350  00000+0  37236-3 0  9993
2 66515  41.4768 341.5977 0002175 296.5638  63.4980 15.66814588 14541
SHENZHOU-22             
1 66645U 25272A   26046.24710755  .00032152  00000+0  39404-3 0  9999
2 66645  41.4684 344.6145 0004086 100.8613 259.2686 15.59657652267644
SOYUZ-MS 28             
1 66664U 25275A   26046.44054941  .00012882  00000+0  24435-3 0  9999
2 66664  51.6317 182.3364 0011011 101.2437 258.9789 15.48624284552882
DUPLEX                  
1 66906U 98067XS  26046.42035475  .00040454  00000+0  60354-3 0  9992
2 66906  51.6292 180.7048 0001395  72.7220 287.3924 15.54655435 11662
ISS OBJECT XT           
1 66907U 98067XT  26046.37411530  .00146041  00000+0  15462-2 0  9995
2 66907  51.6273 178.8932 0002237 308.7066  51.3728 15.63144577 11681
ISS OBJECT XU           
1 66908U 98067XU  26046.37339991  .00145508  00000+0  15388-2 0  9990
2 66908  51.6258 178.8857 0002258 316.6221  43.4595 15.63176212 11680
